{
  "type": "FeatureCollection",
  "features": [
    {
      "type": "Feature",
      "properties": {
        "norad_id": 36046,
        "name": "COSMOS 2251 DEB",
        "group": "cosmos-2251-debris",
        "lat": 3.422101140123312,
        "lon": 97.75089962379577,
        "alt_km": 692.485500206436,
        "timestamp": "2025-12-11T13:55:02.563319+00:00",
        "meta_object_name": "COSMOS 2251 DEB",
        "meta_object_id": "1993-036AXH",
        "meta_epoch": "2025-12-11T03:33:50.177952",
        "meta_mean_motion": 14.65250534,
        "meta_eccentricity": 0.00555284,
        "meta_inclination": 74.0169,
        "meta_ra_of_asc_node": 279.5637,
        "meta_arg_of_pericenter": 65.9642,
        "meta_mean_anomaly": 355.1439,
        "meta_ephemeris_type": 0,
        "meta_classification_type": "U",
        "meta_norad_cat_id": 36046,
        "meta_element_set_no": 999,
        "meta_rev_at_epoch": 63980,
        "meta_bstar": 0.00096114165,
        "meta_mean_motion_dot": 5.271e-05,
        "meta_mean_motion_ddot": 0,
        "tle_line1": "1 36046U 93036AXH 25345.14849743  .00005271  00000+0  96114-3 0  9997",
        "tle_line2": "2 36046  74.0169 279.5637 0055528  65.9642 355.1439 14.65250534639805"
      },
      "geometry": {
        "type": "Point",
        "coordinates": [
          97.75089962379577,
          3.422101140123312
        ]
      }
    },
    {
      "type": "Feature",
      "properties": {
        "norad_id": 36047,
        "name": "COSMOS 2251 DEB",
        "group": "cosmos-2251-debris",
        "lat": -19.707334382751363,
        "lon": -29.38585658977014,
        "alt_km": 579.2748164235863,
        "timestamp": "2025-12-11T13:55:02.563330+00:00",
        "meta_object_name": "COSMOS 2251 DEB",
        "meta_object_id": "1993-036AXJ",
        "meta_epoch": "2025-12-11T05:58:59.566656",
        "meta_mean_motion": 14.95837806,
        "meta_eccentricity": 0.00082013,
        "meta_inclination": 74.036,
        "meta_ra_of_asc_node": 337.1667,
        "meta_arg_of_pericenter": 3.2203,
        "meta_mean_anomaly": 356.9033,
        "meta_ephemeris_type": 0,
        "meta_classification_type": "U",
        "meta_norad_cat_id": 36047,
        "meta_element_set_no": 999,
        "meta_rev_at_epoch": 65917,
        "meta_bstar": 0.0036964515,
        "meta_mean_motion_dot": 0.00041538,
        "meta_mean_motion_ddot": 0,
        "tle_line1": "1 36047U 93036AXJ 25345.24930054  .00041538  00000+0  36965-2 0  9998",
        "tle_line2": "2 36047  74.0360 337.1667 0008201   3.2203 356.9033 14.95837806659174"
      },
      "geometry": {
        "type": "Point",
        "coordinates": [
          -29.38585658977014,
          -19.707334382751363
        ]
      }
    },
    {
      "type": "Feature",
      "properties": {
        "norad_id": 36048,
        "name": "COSMOS 2251 DEB",
        "group": "cosmos-2251-debris",
        "lat": 27.486440471657453,
        "lon": 112.86607662335629,
        "alt_km": 781.8696898873841,
        "timestamp": "2025-12-11T13:55:02.563340+00:00",
        "meta_object_name": "COSMOS 2251 DEB",
        "meta_object_id": "1993-036AXK",
        "meta_epoch": "2025-12-10T07:51:23.656896",
        "meta_mean_motion": 14.3784538,
        "meta_eccentricity": 0.0026514,
        "meta_inclination": 74.0571,
        "meta_ra_of_asc_node": 303.7212,
        "meta_arg_of_pericenter": 354.2337,
        "meta_mean_anomaly": 156.0655,
        "meta_ephemeris_type": 0,
        "meta_classification_type": "U",
        "meta_norad_cat_id": 36048,
        "meta_element_set_no": 999,
        "meta_rev_at_epoch": 85467,
        "meta_bstar": 0.00048763,
        "meta_mean_motion_dot": 1.45e-05,
        "meta_mean_motion_ddot": 0,
        "tle_line1": "1 36048U 93036AXK 25344.32735714  .00001450  00000+0  48763-3 0  9992",
        "tle_line2": "2 36048  74.0571 303.7212 0026514 354.2337 156.0655 14.37845380854671"
      },
      "geometry": {
        "type": "Point",
        "coordinates": [
          112.86607662335629,
          27.486440471657453
        ]
      }
    },
    {
      "type": "Feature",
      "properties": {
        "norad_id": 36049,
        "name": "COSMOS 2251 DEB",
        "group": "cosmos-2251-debris",
        "lat": 23.205058388007515,
        "lon": -65.64768111494385,
        "alt_km": 680.7455116573183,
        "timestamp": "2025-12-11T13:55:02.563350+00:00",
        "meta_object_name": "COSMOS 2251 DEB",
        "meta_object_id": "1993-036AXL",
        "meta_epoch": "2025-12-10T15:51:32.776128",
        "meta_mean_motion": 14.62096087,
        "meta_eccentricity": 0.0010896,
        "meta_inclination": 74.0301,
        "meta_ra_of_asc_node": 123.1637,
        "meta_arg_of_pericenter": 209.0948,
        "meta_mean_anomaly": 150.9613,
        "meta_ephemeris_type": 0,
        "meta_classification_type": "U",
        "meta_norad_cat_id": 36049,
        "meta_element_set_no": 999,
        "meta_rev_at_epoch": 85334,
        "meta_bstar": 0.0024714,
        "meta_mean_motion_dot": 0.00012422,
        "meta_mean_motion_ddot": 0,
        "tle_line1": "1 36049U 93036AXL 25344.66079602  .00012422  00000+0  24714-2 0  9997",
        "tle_line2": "2 36049  74.0301 123.1637 0010896 209.0948 150.9613 14.62096087853349"
      },
      "geometry": {
        "type": "Point",
        "coordinates": [
          -65.64768111494385,
          23.205058388007515
        ]
      }
    },
    {
      "type": "Feature",
      "properties": {
        "norad_id": 36050,
        "name": "COSMOS 2251 DEB",
        "group": "cosmos-2251-debris",
        "lat": 60.8763412037281,
        "lon": -132.68445383356888,
        "alt_km": 610.3664158330639,
        "timestamp": "2025-12-11T13:55:02.563360+00:00",
        "meta_object_name": "COSMOS 2251 DEB",
        "meta_object_id": "1993-036AXM",
        "meta_epoch": "2025-12-10T07:13:56.773056",
        "meta_mean_motion": 15.00978663,
        "meta_eccentricity": 0.0088905,
        "meta_inclination": 74.0317,
        "meta_ra_of_asc_node": 198.9901,
        "meta_arg_of_pericenter": 279.1661,
        "meta_mean_anomaly": 79.9477,
        "meta_ephemeris_type": 0,
        "meta_classification_type": "U",
        "meta_norad_cat_id": 36050,
        "meta_element_set_no": 999,
        "meta_rev_at_epoch": 66998,
        "meta_bstar": 0.00072759,
        "meta_mean_motion_dot": 0.00010072,
        "meta_mean_motion_ddot": 0,
        "tle_line1": "1 36050U 93036AXM 25344.30135154  .00010072  00000+0  72759-3 0  9997",
        "tle_line2": "2 36050  74.0317 198.9901 0088905 279.1661  79.9477 15.00978663669983"
      },
      "geometry": {
        "type": "Point",
        "coordinates": [
          -132.68445383356888,
          60.8763412037281
        ]
      }
    },
    {
      "type": "Feature",
      "properties": {
        "norad_id": 36053,
        "name": "COSMOS 2251 DEB",
        "group": "cosmos-2251-debris",
        "lat": 23.95816961003029,
        "lon": -32.47718198229719,
        "alt_km": 686.6716764555758,
        "timestamp": "2025-12-11T13:55:02.563397+00:00",
        "meta_object_name": "COSMOS 2251 DEB",
        "meta_object_id": "1993-036AXQ",
        "meta_epoch": "2025-12-11T04:58:23.978208",
        "meta_mean_motion": 14.57140562,
        "meta_eccentricity": 0.00327217,
        "meta_inclination": 73.8707,
        "meta_ra_of_asc_node": 155.6255,
        "meta_arg_of_pericenter": 105.2399,
        "meta_mean_anomaly": 255.2386,
        "meta_ephemeris_type": 0,
        "meta_classification_type": "U",
        "meta_norad_cat_id": 36053,
        "meta_element_set_no": 999,
        "meta_rev_at_epoch": 87422,
        "meta_bstar": 0.0024734294,
        "meta_mean_motion_dot": 0.00011225,
        "meta_mean_motion_ddot": 0,
        "tle_line1": "1 36053U 93036AXQ 25345.20722197  .00011225  00000+0  24734-2 0  9999",
        "tle_line2": "2 36053  73.8707 155.6255 0032721 105.2399 255.2386 14.57140562874223"
      },
      "geometry": {
        "type": "Point",
        "coordinates": [
          -32.47718198229719,
          23.95816961003029
        ]
      }
    },
    {
      "type": "Feature",
      "properties": {
        "norad_id": 36058,
        "name": "COSMOS 2251 DEB",
        "group": "cosmos-2251-debris",
        "lat": -73.19496885738248,
        "lon": -35.88218704799702,
        "alt_km": 712.4237176661627,
        "timestamp": "2025-12-11T13:55:02.563408+00:00",
        "meta_object_name": "COSMOS 2251 DEB",
        "meta_object_id": "1993-036AXV",
        "meta_epoch": "2025-12-09T21:09:28.031616",
        "meta_mean_motion": 14.58669067,
        "meta_eccentricity": 0.00447805,
        "meta_inclination": 74.0233,
        "meta_ra_of_asc_node": 38.9054,
        "meta_arg_of_pericenter": 173.9779,
        "meta_mean_anomaly": 186.1934,
        "meta_ephemeris_type": 0,
        "meta_classification_type": "U",
        "meta_norad_cat_id": 36058,
        "meta_element_set_no": 999,
        "meta_rev_at_epoch": 66069,
        "meta_bstar": 0.00079291916,
        "meta_mean_motion_dot": 3.72e-05,
        "meta_mean_motion_ddot": 0,
        "tle_line1": "1 36058U 93036AXV 25343.88157444  .00003720  00000+0  79292-3 0  9994",
        "tle_line2": "2 36058  74.0233  38.9054 0044780 173.9779 186.1934 14.58669067660699"
      },
      "geometry": {
        "type": "Point",
        "coordinates": [
          -35.88218704799702,
          -73.19496885738248
        ]
      }
    }
  ]
}